OBJECT_NAME,OBJECT_ID,EPOCH,MEAN_MOTION,ECCENTRICITY,INCLINATION,RA_OF_ASC_NODE,ARG_OF_PERICENTER,MEAN_ANOMALY,EPHEMERIS_TYPE,CLASSIFICATION_TYPE,NORAD_CAT_ID,ELEMENT_SET_NO,REV_AT_EPOCH,BSTAR,MEAN_MOTION_DOT,MEAN_MOTION_DDOT
TIANMU-1 20,2023-208B,2026-06-12T07:08:44.436192,15.32693035,.00064367,97.4439,280.2031,353.2945,6.8209,0,U,58661,999,13667,.25448696E-3,.796E-4,0
TIANMU-1 21,2023-208C,2026-06-12T07:02:31.493184,15.34992739,.00063311,97.4497,282.8582,344.4767,15.6281,0,U,58662,999,13681,.29547122E-3,.9956E-4,0
TIANMU-1 22,2023-208D,2026-06-12T07:14:19.636224,15.30991667,.00037015,97.4492,279.5168,21.3778,338.7616,0,U,58663,999,13658,.25314337E-3,.7503E-4,0
TIANMU-1 15,2024-004A,2026-06-12T07:33:31.720608,15.26975469,.00071885,97.4666,349.5050,19.2185,340.9324,0,U,58700,999,13503,.22525632E-3,.5894E-4,0
TIANMU-1 16,2024-004B,2026-06-12T07:16:45.896736,15.26700446,.00063213,97.4612,348.7357,24.1936,335.9598,0,U,58701,999,13503,.22140167E-3,.5742E-4,0
TIANMU-1 17,2024-004C,2026-06-12T06:55:48.857952,15.26699226,.0006023,97.4642,349.2044,30.1648,329.9936,0,U,58702,999,13502,.21139564E-3,.5479E-4,0
TIANMU-1 18,2024-004D,2026-06-12T06:23:00.307392,15.26957418,.00045229,97.4659,349.4340,30.8438,329.3065,0,U,58703,999,13502,.21856774E-3,.5711E-4,0
INSAT-3DS,2024-033A,2026-06-12T01:36:46.092960,1.00272117,.00010613,0.0402,129.6749,305.5848,291.4317,0,U,58990,999,4701,0,-.14E-5,0
METEOR-M2 4,2024-039A,2026-06-12T06:13:39.893664,14.22429105,.00070054,98.7009,122.6195,174.8696,185.2555,0,U,59051,999,11856,.22164137E-4,.6E-7,0
GOES 19,2024-119A,2026-06-12T05:59:50.724096,1.00270525,.00004872,0.0336,152.4267,18.6402,104.2914,0,U,60133,999,691,0,-.233E-5,0
MTG-S1,2025-143A,2026-06-12T06:20:18.761856,1.00271617,.00009599,0.6078,337.8047,16.4107,357.9845,0,U,64723,999,337,0,-.16E-6,0
METOP-SGA1,2025-172A,2026-06-12T03:23:23.114400,14.21508973,.00009366,98.6644,222.9609,89.6935,270.4350,0,U,65159,999,4307,.33109933E-4,.29E-6,0
FENGYUN 3H,2025-219A,2026-06-12T05:59:04.057728,14.19919655,.00016173,98.6768,104.1145,80.1181,280.0178,0,U,65815,999,3668,.35122967E-4,.31E-6,0
